{
  "type": "FeatureCollection",
  "features": [
    {
      "type": "Feature",
      "properties": {
        "norad_id": 48859,
        "name": "GPS BIII-5  (PRN 11)",
        "group": "gnss",
        "lat": -52.95704309654194,
        "lon": -133.13857342594142,
        "alt_km": 20128.335964698137,
        "timestamp": "2025-12-10T21:43:22.332177+00:00",
        "meta_object_name": "GPS BIII-5  (PRN 11)",
        "meta_object_id": "2021-054A",
        "meta_epoch": "2025-12-08T04:14:32.423424",
        "meta_mean_motion": 2.00553627,
        "meta_eccentricity": 0.00246779,
        "meta_inclination": 55.2581,
        "meta_ra_of_asc_node": 340.1367,
        "meta_arg_of_pericenter": 233.3994,
        "meta_mean_anomaly": 212.8593,
        "meta_ephemeris_type": 0,
        "meta_classification_type": "U",
        "meta_norad_cat_id": 48859,
        "meta_element_set_no": 999,
        "meta_rev_at_epoch": 3292,
        "meta_bstar": 0,
        "meta_mean_motion_dot": -8.6e-07,
        "meta_mean_motion_ddot": 0,
        "tle_line1": "1 48859U 21054A   25342.17676416 -.00000086  00000+0  00000+0 0  9993",
        "tle_line2": "2 48859  55.2581 340.1367 0024677 233.3994 212.8593  2.00553627 32921"
      },
      "geometry": {
        "type": "Point",
        "coordinates": [
          -133.13857342594142,
          -52.95704309654194
        ]
      }
    },
    {
      "type": "Feature",
      "properties": {
        "norad_id": 49336,
        "name": "QZS-1R (QZSS/PRN 196)",
        "group": "gnss",
        "lat": 36.746789937391675,
        "lon": -178.49724513079127,
        "alt_km": 38936.25705517417,
        "timestamp": "2025-12-10T21:43:22.332191+00:00",
        "meta_object_name": "QZS-1R (QZSS/PRN 196)",
        "meta_object_id": "2021-096A",
        "meta_epoch": "2025-12-08T14:42:38.556864",
        "meta_mean_motion": 1.00258569,
        "meta_eccentricity": 0.07543626,
        "meta_inclination": 37.0693,
        "meta_ra_of_asc_node": 82.4203,
        "meta_arg_of_pericenter": 271.2519,
        "meta_mean_anomaly": 79.6136,
        "meta_ephemeris_type": 0,
        "meta_classification_type": "U",
        "meta_norad_cat_id": 49336,
        "meta_element_set_no": 999,
        "meta_rev_at_epoch": 1509,
        "meta_bstar": 0,
        "meta_mean_motion_dot": -2.65e-06,
        "meta_mean_motion_ddot": 0,
        "tle_line1": "1 49336U 21096A   25342.61294626 -.00000265  00000+0  00000+0 0  9997",
        "tle_line2": "2 49336  37.0693  82.4203 0754362 271.2519  79.6136  1.00258569 15091"
      },
      "geometry": {
        "type": "Point",
        "coordinates": [
          -178.49724513079127,
          36.746789937391675
        ]
      }
    },
    {
      "type": "Feature",
      "properties": {
        "norad_id": 49809,
        "name": "GSAT0223 (GALILEO 27)",
        "group": "gnss",
        "lat": 42.12760445291862,
        "lon": 131.1098952566905,
        "alt_km": 23224.74005814965,
        "timestamp": "2025-12-10T21:43:22.332203+00:00",
        "meta_object_name": "GSAT0223 (GALILEO 27)",
        "meta_object_id": "2021-116A",
        "meta_epoch": "2025-12-10T02:39:25.687008",
        "meta_mean_motion": 1.70475768,
        "meta_eccentricity": 0.00046303,
        "meta_inclination": 57.2198,
        "meta_ra_of_asc_node": 346.7832,
        "meta_arg_of_pericenter": 251.6037,
        "meta_mean_anomaly": 107.9349,
        "meta_ephemeris_type": 0,
        "meta_classification_type": "U",
        "meta_norad_cat_id": 49809,
        "meta_element_set_no": 999,
        "meta_rev_at_epoch": 2495,
        "meta_bstar": 0,
        "meta_mean_motion_dot": -8.7e-07,
        "meta_mean_motion_ddot": 0,
        "tle_line1": "1 49809U 21116A   25344.11071397 -.00000087  00000+0  00000+0 0  9992",
        "tle_line2": "2 49809  57.2198 346.7832 0004630 251.6037 107.9349  1.70475768 24952"
      },
      "geometry": {
        "type": "Point",
        "coordinates": [
          131.1098952566905,
          42.12760445291862
        ]
      }
    },
    {
      "type": "Feature",
      "properties": {
        "norad_id": 49810,
        "name": "GSAT0224 (GALILEO 28)",
        "group": "gnss",
        "lat": -46.52066148184966,
        "lon": -150.43311907692393,
        "alt_km": 23215.832532648597,
        "timestamp": "2025-12-10T21:43:22.332214+00:00",
        "meta_object_name": "GSAT0224 (GALILEO 28)",
        "meta_object_id": "2021-116B",
        "meta_epoch": "2025-12-07T13:56:35.698272",
        "meta_mean_motion": 1.7047563,
        "meta_eccentricity": 0.00040182,
        "meta_inclination": 57.2213,
        "meta_ra_of_asc_node": 346.8506,
        "meta_arg_of_pericenter": 254.5241,
        "meta_mean_anomaly": 105.0474,
        "meta_ephemeris_type": 0,
        "meta_classification_type": "U",
        "meta_norad_cat_id": 49810,
        "meta_element_set_no": 999,
        "meta_rev_at_epoch": 2493,
        "meta_bstar": 0,
        "meta_mean_motion_dot": -8.4e-07,
        "meta_mean_motion_ddot": 0,
        "tle_line1": "1 49810U 21116B   25341.58096873 -.00000084  00000+0  00000+0 0  9995",
        "tle_line2": "2 49810  57.2213 346.8506 0004018 254.5241 105.0474  1.70475630 24934"
      },
      "geometry": {
        "type": "Point",
        "coordinates": [
          -150.43311907692393,
          -46.52066148184966
        ]
      }
    },
    {
      "type": "Feature",
      "properties": {
        "norad_id": 52984,
        "name": "COSMOS 2557 (706K)",
        "group": "gnss",
        "lat": -20.819364309331853,
        "lon": -49.39051974191722,
        "alt_km": 19115.419773637554,
        "timestamp": "2025-12-10T21:43:22.332225+00:00",
        "meta_object_name": "COSMOS 2557 (706K)",
        "meta_object_id": "2022-075A",
        "meta_epoch": "2025-12-07T04:21:00.419904",
        "meta_mean_motion": 2.13101754,
        "meta_eccentricity": 0.00137049,
        "meta_inclination": 64.4129,
        "meta_ra_of_asc_node": 321.247,
        "meta_arg_of_pericenter": 276.9,
        "meta_mean_anomaly": 82.939,
        "meta_ephemeris_type": 0,
        "meta_classification_type": "U",
        "meta_norad_cat_id": 52984,
        "meta_element_set_no": 999,
        "meta_rev_at_epoch": 2662,
        "meta_bstar": 0,
        "meta_mean_motion_dot": -5.2e-07,
        "meta_mean_motion_ddot": 0,
        "tle_line1": "1 52984U 22075A   25341.18125486 -.00000052  00000+0  00000+0 0  9990",
        "tle_line2": "2 52984  64.4129 321.2470 0013704 276.9000  82.9390  2.13101754 26625"
      },
      "geometry": {
        "type": "Point",
        "coordinates": [
          -49.39051974191722,
          -20.819364309331853
        ]
      }
    },
    {
      "type": "Feature",
      "properties": {
        "norad_id": 54031,
        "name": "COSMOS 2559 (707K)",
        "group": "gnss",
        "lat": 54.52648758075424,
        "lon": 98.8868111282366,
        "alt_km": 19117.05446530973,
        "timestamp": "2025-12-10T21:43:22.332238+00:00",
        "meta_object_name": "COSMOS 2559 (707K)",
        "meta_object_id": "2022-130A",
        "meta_epoch": "2025-12-10T06:50:46.265280",
        "meta_mean_motion": 2.13101297,
        "meta_eccentricity": 0.00118632,
        "meta_inclination": 64.3837,
        "meta_ra_of_asc_node": 321.2275,
        "meta_arg_of_pericenter": 192.5527,
        "meta_mean_anomaly": 167.4169,
        "meta_ephemeris_type": 0,
        "meta_classification_type": "U",
        "meta_norad_cat_id": 54031,
        "meta_element_set_no": 999,
        "meta_rev_at_epoch": 2466,
        "meta_bstar": 0,
        "meta_mean_motion_dot": -5.3e-07,
        "meta_mean_motion_ddot": 0,
        "tle_line1": "1 54031U 22130A   25344.28525770 -.00000053  00000+0  00000+0 0  9992",
        "tle_line2": "2 54031  64.3837 321.2275 0011863 192.5527 167.4169  2.13101297 24666"
      },
      "geometry": {
        "type": "Point",
        "coordinates": [
          98.8868111282366,
          54.52648758075424
        ]
      }
    },
    {
      "type": "Feature",
      "properties": {
        "norad_id": 54377,
        "name": "COSMOS 2564 (761)",
        "group": "gnss",
        "lat": -47.87362939212719,
        "lon": 50.43582681702762,
        "alt_km": 19116.44136435187,
        "timestamp": "2025-12-10T21:43:22.332251+00:00",
        "meta_object_name": "COSMOS 2564 (761)",
        "meta_object_id": "2022-161A",
        "meta_epoch": "2025-12-10T14:22:10.689312",
        "meta_mean_motion": 2.1310202,
        "meta_eccentricity": 0.0008624,
        "meta_inclination": 64.738,
        "meta_ra_of_asc_node": 198.9701,
        "meta_arg_of_pericenter": 205.0388,
        "meta_mean_anomaly": 154.9896,
        "meta_ephemeris_type": 0,
        "meta_classification_type": "U",
        "meta_norad_cat_id": 54377,
        "meta_element_set_no": 999,
        "meta_rev_at_epoch": 2361,
        "meta_bstar": 0,
        "meta_mean_motion_dot": 4.7e-07,
        "meta_mean_motion_ddot": 0,
        "tle_line1": "1 54377U 22161A   25344.59873483  .00000047  00000+0  00000+0 0  9992",
        "tle_line2": "2 54377  64.7380 198.9701 0008624 205.0388 154.9896  2.13102020 23612"
      },
      "geometry": {
        "type": "Point",
        "coordinates": [
          50.43582681702762,
          -47.87362939212719
        ]
      }
    }
  ]
}